NORAD_CAT_ID,OBJECT_NAME,OBJECT_TYPE,EPOCH,MEAN_MOTION,ECCENTRICITY,INCLINATION,RA_OF_ASC_NODE,ARG_OF_PERICENTER,MEAN_ANOMALY,BSTAR,MEAN_MOTION_DOT,MEAN_MOTION_DDOT,TLE_LINE0,TLE_LINE1,TLE_LINE2,SEMIMAJOR_AXIS,PERIOD,APOGEE,PERIGEE,DECAYED
52135.0,STARLINK-3729,PAYLOAD,2024-05-13 09:48:32,15.08810969,0.0001689,53.2145,175.6938,108.5315,251.5861,0.0040789,0.00065177,0.0,0 STARLINK-3729,1 52135U 22029AZ  24134.40870923  .00065177  00000-0  40789-2 0  9994,2 52135  53.2145 175.6938 0001689 108.5315 251.5861 15.08810969120507,6917.969,95.439,541.003,538.666,0.0
52135.0,STARLINK-3729,PAYLOAD,2024-05-13 19:20:50,15.08854472,0.000159,53.2151,173.9098,112.62,247.496,0.0012009,0.00018884,0.0,0 STARLINK-3729,1 52135U 22029AZ  24134.80613730  .00018884  00000-0  12009-2 0  9996,2 52135  53.2151 173.9098 0001590 112.6200 247.4960 15.08854472120569,6917.836,95.437,540.801,538.601,0.0
52135.0,STARLINK-3729,PAYLOAD,2024-05-14 09:39:17,15.08868618,0.0001581,53.2145,171.2334,115.6063,244.5093,0.00065139,0.00010102,0.0,0 STARLINK-3729,1 52135U 22029AZ  24135.40228443  .00010102  00000-0  65139-3 0  9994,2 52135  53.2145 171.2334 0001581 115.6063 244.5093 15.08868618120658,6917.793,95.436,540.752,538.564,0.0
52135.0,STARLINK-3729,PAYLOAD,2024-05-14 19:11:35,15.08878186,0.0001539,53.2146,169.4494,114.7789,245.3364,0.00048085,7.381e-05,0.0,0 STARLINK-3729,1 52135U 22029AZ  24135.79971324  .00007381  00000-0  48085-3 0  9995,2 52135  53.2146 169.4494 0001539 114.7789 245.3364 15.08878186120711,6917.764,95.435,540.693,538.564,0.0
52135.0,STARLINK-3729,PAYLOAD,2024-05-15 11:05:25,15.08884114,0.0001609,53.215,166.4762,115.7123,244.4035,0.00042585,6.504e-05,0.0,0 STARLINK-3729,1 52135U 22029AZ  24136.46209646  .00006504  00000-0  42585-3 0  9996,2 52135  53.2150 166.4762 0001609 115.7123 244.4035 15.08884114120816,6917.746,95.435,540.724,538.497,0.0
52135.0,STARLINK-3729,PAYLOAD,2024-05-16 01:23:52,15.0887543,0.0001894,53.214,163.7989,127.7593,232.3571,0.00015335,2.156e-05,0.0,0 STARLINK-3729,1 52135U 22029AZ  24137.05824588  .00002156  00000-0  15335-3 0  9992,2 52135  53.2140 163.7989 0001894 127.7593 232.3571 15.08875430120908,6917.772,95.435,540.947,538.327,0.0
52135.0,STARLINK-3729,PAYLOAD,2024-05-16 10:56:11,15.08854439,0.000138,53.2144,162.0152,122.7767,237.3358,-0.00018122,-3.172e-05,0.0,0 STARLINK-3729,1 52135U 22029AZ  24137.45569059 -.00003172  00000-0 -18122-3 0  9993,2 52135  53.2144 162.0152 0001380 122.7767 237.3358 15.08854439120964,6917.836,95.437,540.656,538.747,0.0
52135.0,STARLINK-3729,PAYLOAD,2024-05-16 18:53:06,15.08858151,0.0001036,53.2153,160.5239,105.8463,254.2643,-0.00012056,-2.207e-05,0.0,0 STARLINK-3729,1 52135U 22029AZ  24137.78688640 -.00002207  00000-0 -12056-3 0  9995,2 52135  53.2153 160.5239 0001036 105.8463 254.2643 15.08858151121013,6917.825,95.436,540.407,538.973,0.0
52135.0,STARLINK-3729,PAYLOAD,2024-05-17 07:36:11,15.08853765,0.0001379,53.2152,158.1432,116.3096,243.8038,-0.00011126,-2.059e-05,0.0,0 STARLINK-3729,1 52135U 22029AZ  24138.31680518 -.00002059  00000-0 -11126-3 0  9993,2 52135  53.2152 158.1432 0001379 116.3096 243.8038 15.08853765121095,6917.838,95.437,540.657,538.749,0.0
52135.0,STARLINK-3729,PAYLOAD,2024-05-18 10:37:45,15.0884561,0.0001528,53.2163,153.0931,97.4634,262.6532,0.00016995,2.418e-05,0.0,0 STARLINK-3729,1 52135U 22029AZ  24139.44288750  .00002418  00000-0  16995-3 0  9996,2 52135  53.2163 153.0931 0001528  97.4634 262.6532 15.08845610121265,6917.863,95.437,540.785,538.671,0.0
52135.0,STARLINK-3729,PAYLOAD,2024-05-19 04:07:00,15.0883734,0.0001594,53.2163,149.8199,102.0089,258.1081,-8.8691e-06,-4.29e-06,0.0,0 STARLINK-3729,1 52135U 22029AZ  24140.17153088 -.00000429  00000-0 -88691-5 0  9999,2 52135  53.2163 149.8199 0001594 102.0089 258.1081 15.08837340121376,6917.889,95.438,540.856,538.651,0.0
52135.0,STARLINK-3729,PAYLOAD,2024-05-19 07:17:46,15.08835898,0.0001332,53.2157,149.2248,96.6402,263.4741,-2.9246e-05,-7.53e-06,0.0,0 STARLINK-3729,1 52135U 22029AZ  24140.30401381 -.00000753  00000-0 -29246-4 0  9996,2 52135  53.2157 149.2248 0001332  96.6402 263.4741 15.08835898121395,6917.893,95.438,540.679,538.836,0.0
52135.0,STARLINK-3729,PAYLOAD,2024-05-20 07:08:33,15.08841019,0.0001331,53.2156,144.764,96.4271,263.6873,8.4371e-05,1.055e-05,0.0,0 STARLINK-3729,1 52135U 22029AZ  24141.29760782  .00001055  00000-0  84371-4 0  9992,2 52135  53.2156 144.7640 0001331  96.4271 263.6873 15.08841019121548,6917.877,95.437,540.663,538.822,0.0
52135.0,STARLINK-3729,PAYLOAD,2024-05-21 03:48:34,15.08828486,0.0001255,53.2145,140.9,72.9837,287.1292,5.2388e-05,5.46e-06,0.0,0 STARLINK-3729,1 52135U 22029AZ  24142.15873832  .00000546  00000-0  52388-4 0  9996,2 52135  53.2145 140.9000 0001255  72.9837 287.1292 15.08828486121679,6917.916,95.438,540.649,538.912,0.0
52135.0,STARLINK-3729,PAYLOAD,2024-05-21 05:23:58,15.08828281,0.0001256,53.2148,140.603,74.7386,285.3745,4.9161e-05,4.94e-06,0.0,0 STARLINK-3729,1 52135U 22029AZ  24142.22497895  .00000494  00000-0  49161-4 0  9992,2 52135  53.2148 140.6030 0001256  74.7386 285.3745 15.08828281121689,6917.916,95.438,540.65,538.912,0.0
52135.0,STARLINK-3729,PAYLOAD,2024-05-22 05:14:45,15.08836222,0.0001232,53.2148,136.1422,72.1045,288.0082,-1.0472e-05,-4.54e-06,0.0,0 STARLINK-3729,1 52135U 22029AZ  24143.21857961 -.00000454  00000-0 -10472-4 0  9997,2 52135  53.2148 136.1422 0001232  72.1045 288.0082 15.08836222121837,6917.892,95.438,540.609,538.905,0.0
52135.0,STARLINK-3729,PAYLOAD,2024-05-23 06:40:55,15.08837192,0.0001308,53.2161,131.3868,88.0031,272.1111,0.00011464,1.537e-05,0.0,0 STARLINK-3729,1 52135U 22029AZ  24144.27841689  .00001537  00000-0  11464-3 0  9996,2 52135  53.2161 131.3868 0001308  88.0031 272.1111 15.08837192121999,6917.889,95.438,540.659,538.849,0.0
52135.0,STARLINK-3729,PAYLOAD,2024-05-24 06:31:42,15.08843016,0.0001368,53.2166,126.9253,88.4495,271.6654,0.00010143,1.327e-05,0.0,0 STARLINK-3729,1 52135U 22029AZ  24145.27201407  .00001327  00000-0  10143-3 0  9995,2 52135  53.2166 126.9253 0001368  88.4495 271.6654 15.08843016122142,6917.871,95.437,540.683,538.79,0.0
52135.0,STARLINK-3729,PAYLOAD,2024-05-25 04:47:06,15.08838305,0.0001442,53.217,122.7622,85.9421,274.1736,-9.2048e-06,-4.34e-06,0.0,0 STARLINK-3729,1 52135U 22029AZ  24146.19937985 -.00000434  00000-0 -92048-5 0  9990,2 52135  53.2170 122.7622 0001442  85.9421 274.1736 15.08838305122284,6917.886,95.438,540.748,538.753,0.0
52135.0,STARLINK-3729,PAYLOAD,2024-05-26 07:48:39,15.08837551,0.0001353,53.2172,117.7053,97.3527,262.7619,7.2114e-05,8.6e-06,0.0,0 STARLINK-3729,1 52135U 22029AZ  24147.32545739  .00000860  00000-0  72114-4 0  9990,2 52135  53.2172 117.7053 0001353  97.3527 262.7619 15.08837551122457,6917.888,95.438,540.689,538.817,0.0
52135.0,STARLINK-3729,PAYLOAD,2024-05-27 04:28:40,15.08834642,0.0001384,53.2173,113.8392,94.7758,265.3392,4.9749e-05,5.04e-06,0.0,0 STARLINK-3729,1 52135U 22029AZ  24148.18658018  .00000504  00000-0  49749-4 0  9993,2 52135  53.2173 113.8392 0001384  94.7758 265.3392 15.08834642122581,6917.897,95.438,540.719,538.804,0.0
52135.0,STARLINK-3729,PAYLOAD,2024-05-27 21:57:55,15.08835855,0.0001379,53.2175,110.5676,97.6435,262.4714,3.3909e-06,-2.34e-06,0.0,0 STARLINK-3729,1 52135U 22029AZ  24148.91522269 -.00000234  00000-0  33909-5 0  9995,2 52135  53.2175 110.5676 0001379  97.6435 262.4714 15.08835855122695,6917.893,95.438,540.712,538.804,0.0
52135.0,STARLINK-3729,PAYLOAD,2024-05-28 04:19:27,15.08835132,0.0001328,53.217,109.3779,95.2432,264.8712,-1.6018e-06,-3.13e-06,0.0,0 STARLINK-3729,1 52135U 22029AZ  24149.18018392 -.00000313  00000-0 -16018-5 0  9993,2 52135  53.2170 109.3779 0001328  95.2432 264.8712 15.08835132122732,6917.895,95.438,540.679,538.842,0.0
52135.0,STARLINK-3729,PAYLOAD,2024-05-28 07:30:14,15.08834641,0.0001341,53.2171,108.7841,96.5328,263.5817,-9.4039e-06,-4.38e-06,0.0,0 STARLINK-3729,1 52135U 22029AZ  24149.31266487 -.00000438  00000-0 -94039-5 0  9995,2 52135  53.2171 108.7841 0001341  96.5328 263.5817 15.08834641122757,6917.897,95.438,540.689,538.834,0.0
52135.0,STARLINK-3729,PAYLOAD,2024-05-29 05:45:38,15.08836578,0.0001281,53.2172,104.6221,93.8309,266.283,3.1224e-05,2.09e-06,0.0,0 STARLINK-3729,1 52135U 22029AZ  24150.24002418  .00000209  00000-0  31224-4 0  9991,2 52135  53.2172 104.6221 0001281  93.8309 266.2830 15.08836578122898,6917.891,95.438,540.642,538.87,0.0
52135.0,STARLINK-3729,PAYLOAD,2024-05-30 05:36:25,15.08839571,0.0001269,53.2173,100.1624,93.8344,266.2793,5.948e-05,6.59e-06,0.0,0 STARLINK-3729,1 52135U 22029AZ  24151.23362443  .00000659  00000-0  59480-4 0  9991,2 52135  53.2173 100.1624 0001269  93.8344 266.2793 15.08839571123044,6917.882,95.438,540.625,538.869,0.0
52135.0,STARLINK-3729,PAYLOAD,2024-05-31 03:51:49,15.08840136,0.0001266,53.2176,96.0004,93.5735,266.5402,4.4759e-05,4.25e-06,0.0,0 STARLINK-3729,1 52135U 22029AZ  24152.16098522  .00000425  00000-0  44759-4 0  9992,2 52135  53.2176  96.0004 0001266  93.5735 266.5402 15.08840136123184,6917.88,95.438,540.621,538.869,0.0
52135.0,STARLINK-3729,PAYLOAD,2024-05-31 05:27:12,15.08841008,0.0001327,53.2179,95.7009,87.0114,273.103,5.2987e-05,5.56e-06,0.0,0 STARLINK-3729,1 52135U 22029AZ  24152.22722473  .00000556  00000-0  52987-4 0  9995,2 52135  53.2179  95.7009 0001327  87.0114 273.1030 15.08841008123196,6917.877,95.437,540.66,538.824,0.0
52135.0,STARLINK-3729,PAYLOAD,2024-06-01 13:14:54,15.08849891,0.0001624,53.2187,89.7566,79.9777,280.1398,4.5654e-05,4.39e-06,0.0,0 STARLINK-3729,1 52135U 22029AZ  24153.55201875  .00000439  00000-0  45654-4 0  9993,2 52135  53.2187  89.7566 0001624  79.9777 280.1398 15.08849891123396,6917.85,95.437,540.839,538.592,0.0
52135.0,STARLINK-3729,PAYLOAD,2024-06-02 01:58:00,15.08835869,0.0001618,53.2193,87.3758,97.7434,262.3742,5.4457e-05,5.79e-06,0.0,0 STARLINK-3729,1 52135U 22029AZ  24154.08194681  .00000579  00000-0  54457-4 0  9994,2 52135  53.2193  87.3758 0001618  97.7434 262.3742 15.08835869123475,6917.893,95.438,540.877,538.639,0.0
